{
  "type": "FeatureCollection",
  "features": [
    {
      "type": "Feature",
      "properties": {
        "norad_id": 30572,
        "name": "FENGYUN 1C DEB",
        "group": "fengyun-1c-debris",
        "lat": -7.233477551213073,
        "lon": -150.45769603689138,
        "alt_km": 859.8590132613281,
        "timestamp": "2025-12-27T10:28:59.071878+00:00",
        "meta_object_name": "FENGYUN 1C DEB",
        "meta_object_id": "1999-025ALN",
        "meta_epoch": "2025-12-27T01:19:47.792064",
        "meta_mean_motion": 14.08934354,
        "meta_eccentricity": 0.0021104,
        "meta_inclination": 98.7708,
        "meta_ra_of_asc_node": 30.294,
        "meta_arg_of_pericenter": 251.332,
        "meta_mean_anomaly": 162.7374,
        "meta_ephemeris_type": 0,
        "meta_classification_type": "U",
        "meta_norad_cat_id": 30572,
        "meta_element_set_no": 999,
        "meta_rev_at_epoch": 96963,
        "meta_bstar": 0.00021676,
        "meta_mean_motion_dot": 3.33e-06,
        "meta_mean_motion_ddot": 0,
        "tle_line1": "1 30572U 99025ALN 25361.05541426  .00000333  00000+0  21676-3 0  9999",
        "tle_line2": "2 30572  98.7708  30.2940 0021104 251.3320 162.7374 14.08934354969634"
      },
      "geometry": {
        "type": "Point",
        "coordinates": [
          -150.45769603689138,
          -7.233477551213073
        ]
      }
    },
    {
      "type": "Feature",
      "properties": {
        "norad_id": 30573,
        "name": "FENGYUN 1C DEB",
        "group": "fengyun-1c-debris",
        "lat": 19.505841875366812,
        "lon": 36.3407635492133,
        "alt_km": 899.9902570289196,
        "timestamp": "2025-12-27T10:28:59.071888+00:00",
        "meta_object_name": "FENGYUN 1C DEB",
        "meta_object_id": "1999-025ALP",
        "meta_epoch": "2025-12-27T02:13:04.103904",
        "meta_mean_motion": 14.13938385,
        "meta_eccentricity": 0.0089032,
        "meta_inclination": 99.2261,
        "meta_ra_of_asc_node": 39.2861,
        "meta_arg_of_pericenter": 233.4508,
        "meta_mean_anomaly": 193.8528,
        "meta_ephemeris_type": 0,
        "meta_classification_type": "U",
        "meta_norad_cat_id": 30573,
        "meta_element_set_no": 999,
        "meta_rev_at_epoch": 96400,
        "meta_bstar": 0.0020711,
        "meta_mean_motion_dot": 4.036e-05,
        "meta_mean_motion_ddot": 0,
        "tle_line1": "1 30573U 99025ALP 25361.09240861  .00004036  00000+0  20711-2 0  9995",
        "tle_line2": "2 30573  99.2261  39.2861 0089032 233.4508 193.8528 14.13938385964005"
      },
      "geometry": {
        "type": "Point",
        "coordinates": [
          36.3407635492133,
          19.505841875366812
        ]
      }
    },
    {
      "type": "Feature",
      "properties": {
        "norad_id": 30574,
        "name": "FENGYUN 1C DEB",
        "group": "fengyun-1c-debris",
        "lat": -10.34792277591427,
        "lon": -16.98061099290683,
        "alt_km": 1050.4364856715265,
        "timestamp": "2025-12-27T10:28:59.071898+00:00",
        "meta_object_name": "FENGYUN 1C DEB",
        "meta_object_id": "1999-025ALQ",
        "meta_epoch": "2025-12-25T10:28:43.135104",
        "meta_mean_motion": 13.77586034,
        "meta_eccentricity": 0.0220298,
        "meta_inclination": 99.3007,
        "meta_ra_of_asc_node": 162.7748,
        "meta_arg_of_pericenter": 313.926,
        "meta_mean_anomaly": 44.3892,
        "meta_ephemeris_type": 0,
        "meta_classification_type": "U",
        "meta_norad_cat_id": 30574,
        "meta_element_set_no": 999,
        "meta_rev_at_epoch": 93943,
        "meta_bstar": 0.0023552,
        "meta_mean_motion_dot": 2.765e-05,
        "meta_mean_motion_ddot": 0,
        "tle_line1": "1 30574U 99025ALQ 25359.43661036  .00002765  00000+0  23552-2 0  9995",
        "tle_line2": "2 30574  99.3007 162.7748 0220298 313.9260  44.3892 13.77586034939433"
      },
      "geometry": {
        "type": "Point",
        "coordinates": [
          -16.98061099290683,
          -10.34792277591427
        ]
      }
    },
    {
      "type": "Feature",
      "properties": {
        "norad_id": 30575,
        "name": "FENGYUN 1C DEB",
        "group": "fengyun-1c-debris",
        "lat": 33.71136005376523,
        "lon": 87.20407775347172,
        "alt_km": 792.3172988966016,
        "timestamp": "2025-12-27T10:28:59.071908+00:00",
        "meta_object_name": "FENGYUN 1C DEB",
        "meta_object_id": "1999-025ALR",
        "meta_epoch": "2025-12-27T03:59:13.923168",
        "meta_mean_motion": 14.40155225,
        "meta_eccentricity": 0.0054719,
        "meta_inclination": 99.1687,
        "meta_ra_of_asc_node": 93.1006,
        "meta_arg_of_pericenter": 194.4185,
        "meta_mean_anomaly": 237.6374,
        "meta_ephemeris_type": 0,
        "meta_classification_type": "U",
        "meta_norad_cat_id": 30575,
        "meta_element_set_no": 999,
        "meta_rev_at_epoch": 98425,
        "meta_bstar": 0.0012458,
        "meta_mean_motion_dot": 3.958e-05,
        "meta_mean_motion_ddot": 0,
        "tle_line1": "1 30575U 99025ALR 25361.16613337  .00003958  00000+0  12458-2 0  9998",
        "tle_line2": "2 30575  99.1687  93.1006 0054719 194.4185 237.6374 14.40155225984258"
      },
      "geometry": {
        "type": "Point",
        "coordinates": [
          87.20407775347172,
          33.71136005376523
        ]
      }
    },
    {
      "type": "Feature",
      "properties": {
        "norad_id": 30577,
        "name": "FENGYUN 1C DEB",
        "group": "fengyun-1c-debris",
        "lat": -3.805386597136156,
        "lon": 35.611436239564085,
        "alt_km": 868.1279262972384,
        "timestamp": "2025-12-27T10:28:59.071918+00:00",
        "meta_object_name": "FENGYUN 1C DEB",
        "meta_object_id": "1999-025ALT",
        "meta_epoch": "2025-12-26T09:03:05.175072",
        "meta_mean_motion": 14.11167923,
        "meta_eccentricity": 0.0028972,
        "meta_inclination": 98.7693,
        "meta_ra_of_asc_node": 33.9885,
        "meta_arg_of_pericenter": 242.5575,
        "meta_mean_anomaly": 133.1652,
        "meta_ephemeris_type": 0,
        "meta_classification_type": "U",
        "meta_norad_cat_id": 30577,
        "meta_element_set_no": 999,
        "meta_rev_at_epoch": 96977,
        "meta_bstar": 0.0004994,
        "meta_mean_motion_dot": 8.6e-06,
        "meta_mean_motion_ddot": 0,
        "tle_line1": "1 30577U 99025ALT 25360.37714323  .00000860  00000+0  49940-3 0  9995",
        "tle_line2": "2 30577  98.7693  33.9885 0028972 242.5575 133.1652 14.11167923969774"
      },
      "geometry": {
        "type": "Point",
        "coordinates": [
          35.611436239564085,
          -3.805386597136156
        ]
      }
    },
    {
      "type": "Feature",
      "properties": {
        "norad_id": 30579,
        "name": "FENGYUN 1C DEB",
        "group": "fengyun-1c-debris",
        "lat": -68.1807823599387,
        "lon": -177.09196454643404,
        "alt_km": 921.4137785536659,
        "timestamp": "2025-12-27T10:28:59.071928+00:00",
        "meta_object_name": "FENGYUN 1C DEB",
        "meta_object_id": "1999-025ALV",
        "meta_epoch": "2025-12-26T20:27:06.739776",
        "meta_mean_motion": 14.05264577,
        "meta_eccentricity": 0.00535597,
        "meta_inclination": 98.8056,
        "meta_ra_of_asc_node": 25.1186,
        "meta_arg_of_pericenter": 64.5612,
        "meta_mean_anomaly": 109.4347,
        "meta_ephemeris_type": 0,
        "meta_classification_type": "U",
        "meta_norad_cat_id": 30579,
        "meta_element_set_no": 999,
        "meta_rev_at_epoch": 96655,
        "meta_bstar": 0.00020618202,
        "meta_mean_motion_dot": 2.95e-06,
        "meta_mean_motion_ddot": 0,
        "tle_line1": "1 30579U 99025ALV 25360.85216134  .00000295  00000+0  20618-3 0  9990",
        "tle_line2": "2 30579  98.8056  25.1186 0053559  64.5612 109.4347 14.05264577966556"
      },
      "geometry": {
        "type": "Point",
        "coordinates": [
          -177.09196454643404,
          -68.1807823599387
        ]
      }
    },
    {
      "type": "Feature",
      "properties": {
        "norad_id": 30594,
        "name": "FENGYUN 1C DEB",
        "group": "fengyun-1c-debris",
        "lat": 80.06638595123096,
        "lon": 151.08988877741805,
        "alt_km": 964.5383042147596,
        "timestamp": "2025-12-27T10:28:59.071938+00:00",
        "meta_object_name": "FENGYUN 1C DEB",
        "meta_object_id": "1999-025ALZ",
        "meta_epoch": "2025-12-26T08:39:21.441312",
        "meta_mean_motion": 14.17353474,
        "meta_eccentricity": 0.0193013,
        "meta_inclination": 99.1504,
        "meta_ra_of_asc_node": 216.9554,
        "meta_arg_of_pericenter": 277.6525,
        "meta_mean_anomaly": 80.2768,
        "meta_ephemeris_type": 0,
        "meta_classification_type": "U",
        "meta_norad_cat_id": 30594,
        "meta_element_set_no": 999,
        "meta_rev_at_epoch": 97772,
        "meta_bstar": 0.00021,
        "meta_mean_motion_dot": 4.59e-06,
        "meta_mean_motion_ddot": 0,
        "tle_line1": "1 30594U 99025ALZ 25360.36066483  .00000459  00000+0  21000-3 0  9991",
        "tle_line2": "2 30594  99.1504 216.9554 0193013 277.6525  80.2768 14.17353474977726"
      },
      "geometry": {
        "type": "Point",
        "coordinates": [
          151.08988877741805,
          80.06638595123096
        ]
      }
    }
  ]
}